$$SOE
2460147.500000000, A.D. 2023-Jul-22 00:00:00.0000, -5.230896857990698E+08, -3.032733878601932E+08, -2.735702525051716E+07,
2460154.500000000, A.D. 2023-Jul-29 00:00:00.0000, -5.198037479111477E+08, -3.114760769409059E+08, -2.758734148722467E+07,
2460161.500000000, A.D. 2023-Aug-05 00:00:00.0000, -5.164048237525309E+08, -3.196110432139509E+08, -2.781165575131489E+07,
2460168.500000000, A.D. 2023-Aug-12 00:00:00.0000, -5.128943945065020E+08, -3.276769768845559E+08, -2.802995893306781E+07,
2460175.500000000, A.D. 2023-Aug-19 00:00:00.0000, -5.092739452586064E+08, -3.356726003811250E+08, -2.824224333932433E+07,
2460182.500000000, A.D. 2023-Aug-26 00:00:00.0000, -5.055449644451826E+08, -3.435966677961898E+08, -2.844850265268569E+07,
2460189.500000000, A.D. 2023-Sep-02 00:00:00.0000, -5.017089433479292E+08, -3.514479643974792E+08, -2.864873189601797E+07,
2460196.500000000, A.D. 2023-Sep-09 00:00:00.0000, -4.977673755973290E+08, -3.592253062509116E+08, -2.884292740895212E+07,
2460203.500000000, A.D. 2023-Sep-16 00:00:00.0000, -4.937217565159113E+08, -3.669275400140673E+08, -2.903108685650678E+07,
2460210.500000000, A.D. 2023-Sep-23 00:00:00.0000, -4.895735818843415E+08, -3.745535426138332E+08, -2.921320928451134E+07,
2460217.500000000, A.D. 2023-Sep-30 00:00:00.0000, -4.853243464691840E+08, -3.821022196178733E+08, -2.938929509325427E+07,
2460224.500000000, A.D. 2023-Oct-07 00:00:00.0000, -4.809755446651844E+08, -3.895725028431633E+08, -2.955934575768819E+07,
2460231.500000000, A.D. 2023-Oct-14 00:00:00.0000, -4.765286722115566E+08, -3.969633505155504E+08, -2.972336366022351E+07,
2460238.500000000, A.D. 2023-Oct-21 00:00:00.0000, -4.719852257535592E+08, -4.042737483783535E+08, -2.988135220112842E+07,
2460245.500000000, A.D. 2023-Oct-28 00:00:00.0000, -4.673467016733817E+08, -4.115027094900590E+08, -3.003331587092054E+07,
2460252.500000000, A.D. 2023-Nov-04 00:00:00.0000, -4.626145954395996E+08, -4.186492734815605E+08, -3.017926023274517E+07,
2460259.500000000, A.D. 2023-Nov-11 00:00:00.0000, -4.577904012968296E+08, -4.257125058731245E+08, -3.031919187977976E+07,
2460266.500000000, A.D. 2023-Nov-18 00:00:00.0000, -4.528756120754657E+08, -4.326914975158713E+08, -3.045311839282537E+07,
2460273.500000000, A.D. 2023-Nov-25 00:00:00.0000, -4.478717190482289E+08, -4.395853641356903E+08, -3.058104830272311E+07,
2460280.500000000, A.D. 2023-Dec-02 00:00:00.0000, -4.427802118049675E+08, -4.463932459911820E+08, -3.070299106092992E+07,
2460287.500000000, A.D. 2023-Dec-09 00:00:00.0000, -4.376025780674992E+08, -4.531143077048483E+08, -3.081895703009501E+07,
2460294.500000000, A.D. 2023-Dec-16 00:00:00.0000, -4.323403031565552E+08, -4.597477382552368E+08, -3.092895751994348E+07,
2460301.500000000, A.D. 2023-Dec-23 00:00:00.0000, -4.269948687619713E+08, -4.662927504427854E+08, -3.103300484427997E+07,
2460308.500000000, A.D. 2023-Dec-30 00:00:00.0000, -4.215677523558308E+08, -4.727485787801647E+08, -3.113111219052857E+07,
2460315.500000000, A.D. 2024-Jan-06 00:00:00.0000, -4.160604290203583E+08, -4.791144781679751E+08, -3.122329333233571E+07,
2460322.500000000, A.D. 2024-Jan-13 00:00:00.0000, -4.104743725175264E+08, -4.853897251631806E+08, -3.130956262418228E+07,
2460329.500000000, A.D. 2024-Jan-20 00:00:00.0000, -4.048110543768160E+08, -4.915736187558976E+08, -3.138993513839689E+07,
2460336.500000000, A.D. 2024-Jan-27 00:00:00.0000, -3.990719430295424E+08, -4.976654800019636E+08, -3.146442670535243E+07,
2460343.500000000, A.D. 2024-Feb-03 00:00:00.0000, -3.932585034173527E+08, -5.036646514594408E+08, -3.153305389522198E+07,
2460350.500000000, A.D. 2024-Feb-10 00:00:00.0000, -3.873721967965913E+08, -5.095704967199958E+08, -3.159583399069145E+07,
2460357.500000000, A.D. 2024-Feb-17 00:00:00.0000, -3.814144805989963E+08, -5.153824000274267E+08, -3.165278496288729E+07,
2460364.500000000, A.D. 2024-Feb-24 00:00:00.0000, -3.753868083122216E+08, -5.210997659690242E+08, -3.170392545279491E+07,
2460371.500000000, A.D. 2024-Mar-02 00:00:00.0000, -3.692906293505753E+08, -5.267220192728220E+08, -3.174927476367977E+07,
2460378.500000000, A.D. 2024-Mar-09 00:00:00.0000, -3.631273887771085E+08, -5.322486047740141E+08, -3.178885288250142E+07,
2460385.500000000, A.D. 2024-Mar-16 00:00:00.0000, -3.568985264817564E+08, -5.376789873534966E+08, -3.182268055052349E+07,
2460392.500000000, A.D. 2024-Mar-23 00:00:00.0000, -3.506054759190319E+08, -5.430126507394277E+08, -3.185077928300261E+07,
2460399.500000000, A.D. 2024-Mar-30 00:00:00.0000, -3.442496646460641E+08, -5.482490951983173E+08, -3.187317113456142E+07,
2460406.500000000, A.D. 2024-Apr-06 00:00:00.0000, -3.378325164044043E+08, -5.533878374831709E+08, -3.188987850893879E+07,
2460413.500000000, A.D. 2024-Apr-13 00:00:00.0000, -3.313554511942157E+08, -5.584284122025572E+08, -3.190092427050570E+07,
2460420.500000000, A.D. 2024-Apr-20 00:00:00.0000, -3.248198842929525E+08, -5.633703719340163E+08, -3.190633185143557E+07,
2460427.500000000, A.D. 2024-Apr-27 00:00:00.0000, -3.182272257353138E+08, -5.682132866428988E+08, -3.190612526117334E+07,
2460434.500000000, A.D. 2024-May-04 00:00:00.0000, -3.115788801661463E+08, -5.729567431096289E+08, -3.190032906364578E+07,
2460441.500000000, A.D. 2024-May-11 00:00:00.0000, -3.048762468275030E+08, -5.776003444668083E+08, -3.188896835227570E+07,
2460448.500000000, A.D. 2024-May-18 00:00:00.0000, -2.981207195974449E+08, -5.821437098241907E+08, -3.187206872840831E+07,
2460455.500000000, A.D. 2024-May-25 00:00:00.0000, -2.913136870555179E+08, -5.865864739883243E+08, -3.184965628581366E+07,
2460462.500000000, A.D. 2024-Jun-01 00:00:00.0000, -2.844565325147588E+08, -5.909282873339632E+08, -3.182175761122161E+07,
2460469.500000000, A.D. 2024-Jun-08 00:00:00.0000, -2.775506337736066E+08, -5.951688158499032E+08, -3.178839982509804E+07,
2460476.500000000, A.D. 2024-Jun-15 00:00:00.0000, -2.705973621879585E+08, -5.993077408138670E+08, -3.174961065447944E+07,
2460483.500000000, A.D. 2024-Jun-22 00:00:00.0000, -2.635980820683393E+08, -6.033447569209330E+08, -3.170541834933326E+07,
2460490.500000000, A.D. 2024-Jun-29 00:00:00.0000, -2.565541525233847E+08, -6.072795706859174E+08, -3.165585139637667E+07,
2460497.500000000, A.D. 2024-Jul-06 00:00:00.0000, -2.494669291042092E+08, -6.111119015908177E+08, -3.160093847471818E+07,
2460504.500000000, A.D. 2024-Jul-13 00:00:00.0000, -2.423377633003267E+08, -6.148414831535578E+08, -3.154070860119873E+07,
2460511.500000000, A.D. 2024-Jul-20 00:00:00.0000, -2.351680018728491E+08, -6.184680627694120E+08, -3.147519118932873E+07,
2460518.500000000, A.D. 2024-Jul-27 00:00:00.0000, -2.279589866808916E+08, -6.219914012843676E+08, -3.140441604003018E+07,
2460525.500000000, A.D. 2024-Aug-03 00:00:00.0000, -2.207120547280618E+08, -6.254112726751083E+08, -3.132841331991193E+07,
2460532.500000000, A.D. 2024-Aug-10 00:00:00.0000, -2.134285382630163E+08, -6.287274638397887E+08, -3.124721354279366E+07,
2460539.500000000, A.D. 2024-Aug-17 00:00:00.0000, -2.061097648865274E+08, -6.319397744775957E+08, -3.116084755724552E+07,
2460546.500000000, A.D. 2024-Aug-24 00:00:00.0000, -1.987570576370638E+08, -6.350480170790904E+08, -3.106934654476374E+07,
2460553.500000000, A.D. 2024-Aug-31 00:00:00.0000, -1.913717349392079E+08, -6.380520170885420E+08, -3.097274204446927E+07,
2460560.500000000, A.D. 2024-Sep-07 00:00:00.0000, -1.839551100494350E+08, -6.409516131115534E+08, -3.087106602777180E+07,
2460567.500000000, A.D. 2024-Sep-14 00:00:00.0000, -1.765084899140851E+08, -6.437466561716520E+08, -3.076435094964269E+07,
2460574.500000000, A.D. 2024-Sep-21 00:00:00.0000, -1.690331754683300E+08, -6.464370076025476E+08, -3.065262955685547E+07,
2460581.500000000, A.D. 2024-Sep-28 00:00:00.0000, -1.615304638632796E+08, -6.490225388029116E+08, -3.053593467239255E+07,
2460588.500000000, A.D. 2024-Oct-05 00:00:00.0000, -1.540016489510582E+08, -6.515031328516715E+08, -3.041429929261217E+07,
2460595.500000000, A.D. 2024-Oct-12 00:00:00.0000, -1.464480203881775E+08, -6.538786850036951E+08, -3.028775672066414E+07,
2460602.500000000, A.D. 2024-Oct-19 00:00:00.0000, -1.388708631079062E+08, -6.561491023365639E+08, -3.015634059773484E+07,
2460609.500000000, A.D. 2024-Oct-26 00:00:00.0000, -1.312714571937605E+08, -6.583143033496901E+08, -3.002008489467630E+07,
2460616.500000000, A.D. 2024-Nov-02 00:00:00.0000, -1.236510778965420E+08, -6.603742176640366E+08, -2.987902389976251E+07,
2460623.500000000, A.D. 2024-Nov-09 00:00:00.0000, -1.160109956981263E+08, -6.623287858015702E+08, -2.973319220972788E+07,
2460630.500000000, A.D. 2024-Nov-16 00:00:00.0000, -1.083524763959100E+08, -6.641779590439646E+08, -2.958262472640541E+07,
2460637.500000000, A.D. 2024-Nov-23 00:00:00.0000, -1.006767811608176E+08, -6.659216994202218E+08, -2.942735666727644E+07,
2460644.500000000, A.D. 2024-Nov-30 00:00:00.0000, -9.298516636043598E+07, -6.675599798656137E+08, -2.926742361243170E+07,
2460651.500000000, A.D. 2024-Dec-07 00:00:00.0000, -8.527888272774845E+07, -6.690927841310821E+08, -2.910286159191376E+07,
2460658.500000000, A.D. 2024-Dec-14 00:00:00.0000, -7.755917456404036E+07, -6.705201052187937E+08, -2.893370705010557E+07,
2460665.500000000, A.D. 2024-Dec-21 00:00:00.0000, -6.982728129440169E+07, -6.718419435840876E+08, -2.875999657572147E+07,
2460672.500000000, A.D. 2024-Dec-28 00:00:00.0000, -6.208443940298279E+07, -6.730583080707163E+08, -2.858176682064402E+07,
2460679.500000000, A.D. 2025-Jan-04 00:00:00.0000, -5.433188215045394E+07, -6.741692172032720E+08, -2.839905465145481E+07,
2460686.500000000, A.D. 2025-Jan-11 00:00:00.0000, -4.657083889481456E+07, -6.751746991770922E+08, -2.821189723073256E+07,
2460693.500000000, A.D. 2025-Jan-18 00:00:00.0000, -3.880253493238598E+07, -6.760747914643583E+08, -2.802033201882884E+07,
2460700.500000000, A.D. 2025-Jan-25 00:00:00.0000, -3.102819161532978E+07, -6.768695405107628E+08, -2.782439675695899E+07,
2460707.500000000, A.D. 2025-Feb-01 00:00:00.0000, -2.324902655597337E+07, -6.775590015527012E+08, -2.762412945118293E+07,
$$EOE